QIANFAN-81              
1 63167U 25046J   25237.54088440  .00000165  00000+0  23596-3 0  9991
2 63167  88.9864 331.1369 0016545  80.9317 279.3706 13.50966963 32741
QIANFAN-82              
1 63168U 25046K   25237.57371260  .00000159  00000+0  22790-3 0  9998
2 63168  88.9864 331.1771 0014825  88.2730 272.0119 13.50964042 32731
QIANFAN-83              
1 63169U 25046L   25237.59938628  .00000191  00000+0  23179-3 0  9996
2 63169  88.9864 331.1646 0015989  80.1292 280.1669 13.61939897 32742
QIANFAN-84              
1 63170U 25046M   25237.60246039  .00000084  00000+0  11091-3 0  9999
2 63170  88.9864 331.3072 0017732  84.3029 276.0143 13.50970605 32663
QIANFAN-85              
1 63171U 25046N   25237.59850510  .00000168  00000+0  24201-3 0  9993
2 63171  88.9863 331.1798 0015156  87.1864 273.1022 13.50964972 32734
QIANFAN-86              
1 63172U 25046P   25237.60672546  .00000162  00000+0  23229-3 0  9990
2 63172  88.9866 331.0385 0013104  91.5046 268.7606 13.50965496 32810
QIANFAN-87              
1 63173U 25046Q   25237.57786218  .00000164  00000+0  23557-3 0  9995
2 63173  88.9862 331.1572 0013737  86.9325 273.3398 13.50962246 32748
QIANFAN-88              
1 63174U 25046R   25237.59440485  .00000173  00000+0  24862-3 0  9991
2 63174  88.9864 331.1074 0014225  93.7157 266.5621 13.50969454 32774
